{
    "links": {
        "self": "http://www.neowsapp.com/rest/v1/neo/3878599?api_key=iIulBulltgU6a56xZRHN4H3l9WmuAYTsLGpBGhQ2"
    },
    "id": "3878599",
    "neo_reference_id": "3878599",
    "name": "(2019 TV3)",
    "designation": "2019 TV3",
    "nasa_jpl_url": "http://ssd.jpl.nasa.gov/sbdb.cgi?sstr=3878599",
    "absolute_magnitude_h": 23.2,
    "estimated_diameter": {
        "kilometers": {
            "estimated_diameter_min": 0.0608912622,
            "estimated_diameter_max": 0.1361570015
        },
        "meters": {
            "estimated_diameter_min": 60.8912622106,
            "estimated_diameter_max": 136.1570015386
        },
        "miles": {
            "estimated_diameter_min": 0.0378360645,
            "estimated_diameter_max": 0.0846040122
        },
        "feet": {
            "estimated_diameter_min": 199.7744887109,
            "estimated_diameter_max": 446.7093369279
        }
    },
    "is_potentially_hazardous_asteroid": false,
    "close_approach_data": [
        {
            "close_approach_date": "2019-10-24",
            "close_approach_date_full": "2019-Oct-24 05:51",
            "epoch_date_close_approach": 1571896260000,
            "relative_velocity": {
                "kilometers_per_second": "6.5671333917",
                "kilometers_per_hour": "23641.6802101609",
                "miles_per_hour": "14690.0206839192"
            },
            "miss_distance": {
                "astronomical": "0.1920875534",
                "lunar": "74.7220582726",
                "kilometers": "28735888.842151258",
                "miles": "17855653.3488650404"
            },
            "orbiting_body": "Earth"
        }
    ],
    "orbital_data": {
        "orbit_id": "1",
        "orbit_determination_date": "2019-10-08 07:42:03",
        "first_observation_date": "2019-10-05",
        "last_observation_date": "2019-10-08",
        "data_arc_in_days": 3,
        "observations_used": 12,
        "orbit_uncertainty": "9",
        "minimum_orbit_intersection": ".139358",
        "jupiter_tisserand_invariant": "3.568",
        "epoch_osculation": "2458762.5",
        "eccentricity": ".4757193242195882",
        "semi_major_axis": "2.12791730247855",
        "inclination": "3.789333533042145",
        "ascending_node_longitude": "157.0667777310128",
        "orbital_period": "1133.78457907677",
        "perihelion_distance": "1.115625921348285",
        "perihelion_argument": "247.6997898514191",
        "aphelion_distance": "3.140208683608815",
        "perihelion_time": "2458787.817932005872",
        "mean_anomaly": "351.9610341414806",
        "mean_motion": ".3175206354395335",
        "equinox": "J2000",
        "orbit_class": {
            "orbit_class_type": "AMO",
            "orbit_class_description": "Near-Earth asteroid orbits similar to that of 1221 Amor",
            "orbit_class_range": "1.017 AU < q (perihelion) < 1.3 AU"
        }
    },
    "is_sentry_object": false
}